[{"OBJECT_NAME":"STARLINK-4115","OBJECT_ID":"2022-076AY","EPOCH":"2026-03-09T10:49:35.714784","MEAN_MOTION":15.08849114,"ECCENTRICITY":0.00012399,"INCLINATION":53.2168,"RA_OF_ASC_NODE":85.1937,"ARG_OF_PERICENTER":93.7555,"MEAN_ANOMALY":266.3579,"EPHEMERIS_TYPE":0,"CLASSIFICATION_TYPE":"U","NORAD_CAT_ID":53032,"ELEMENT_SET_NO":999,"REV_AT_EPOCH":20295,"BSTAR":5.109472e-6,"MEAN_MOTION_DOT":-2.07e-6,"MEAN_MOTION_DDOT":0},{"OBJECT_NAME":"SL-8 DEB","OBJECT_ID":"1986-052E","EPOCH":"2026-03-08T09:24:38.203776","MEAN_MOTION":15.11223117,"ECCENTRICITY":0.00100672,"INCLINATION":74.0059,"RA_OF_ASC_NODE":66.8929,"ARG_OF_PERICENTER":314.4934,"MEAN_ANOMALY":45.5435,"EPHEMERIS_TYPE":0,"CLASSIFICATION_TYPE":"U","NORAD_CAT_ID":16867,"ELEMENT_SET_NO":999,"REV_AT_EPOCH":11371,"BSTAR":0.0018795551,"MEAN_MOTION_DOT":0.0003173,"MEAN_MOTION_DDOT":0}]
